[
  "TORO                    \r\n1 60530U 24149BQ  26190.43921267  .00001275  00000+0  11721-3 0  9995\r\n2 60530  97.6784 264.6917 0001425  92.2842 267.8543 14.96508455103287\r\n",
  "TORO3                   \r\n1 68481U 26067BT  26190.69824593  .00000641  00000+0  68484-4 0  9996\r\n2 68481  97.7684 148.7402 0001628 213.0875 147.0242 14.92162054 15087\r\n",
  "SATORO-T3               \r\n1 64589U 25135BP  26191.26344955  .00002705  00000+0  25637-3 0  9994\r\n2 64589  97.7729 305.5576 0003450 245.6213 114.4647 14.94425890 57354\r\n",
  "GEMINI-POLLUX           \r\n1 69000U 26100W   26189.65225258  .00001543  00000+0  15652-3 0  9999\r\n2 69000  97.7298  86.7270 0001907 116.8490 243.2924 14.92307273  9907\r\n",
  "FORMOSAT-2 (ROCSAT 2)   \r\n1 28254U 04018A   26190.69328016 -.00000247  00000+0 -13608-3 0  9992\r\n2 28254  98.8459 157.4851 0000574 241.1765 291.5421 14.01254302131909\r\n",
  "FORMOSAT-3 FM6          \r\n1 29047U 06011A   26191.16444400  .00000219  00000+0  96952-4 0  9998\r\n2 29047  71.9769 264.2482 0048912 200.0741 159.8475 14.31416317 57696\r\n",
  "FORMOSAT-3 FM1          \r\n1 29048U 06011B   26190.66921532  .00000240  00000+0  10537-3 0  9997\r\n2 29048  71.9646 173.6553 0041583 164.0722 196.1735 14.31405149 59997\r\n",
  "FORMOSAT-3 FM5          \r\n1 29049U 06011C   26190.71921487  .00000276  00000+0  11902-3 0  9999\r\n2 29049  72.0191 357.8096 0033581 170.4213 189.7573 14.31421678 55896\r\n",
  "FORMOSAT-3 FM3          \r\n1 29050U 06011D   26191.16522264  .00000703  00000+0  13289-3 0  9996\r\n2 29050  72.0127 262.5245 0044886 244.3395 115.3122 14.67009197 79749\r\n",
  "FORMOSAT-3 FM4          \r\n1 29051U 06011E   26190.53756403  .00000174  00000+0  79117-4 0  9996\r\n2 29051  72.0030 255.6840 0064530  50.6961 309.9874 14.31555405 58462\r\n",
  "FORMOSAT-3 FM2          \r\n1 29052U 06011F   26190.53527141  .00000280  00000+0  11959-3 0  9999\r\n2 29052  72.0336 336.5734 0037543 122.8191 237.6572 14.31635843 55985\r\n",
  "PACE                    \r\n1 40022U 14033N   26190.51382381  .00003360  00000+0  20525-3 0  9996\r\n2 40022  98.1244 196.7586 0007525 133.9122 226.2728 15.11035975656407\r\n",
  "FORMOSAT-5              \r\n1 42920U 17049A   26191.29346281  .00000053  00000+0  24491-4 0  9993\r\n2 42920  98.2247 266.0893 0011675  18.7216 341.4407 14.50906979470026\r\n",
  "FORMOSAT 7-3            \r\n1 44343U 19036E   26190.85102663  .00003293  00000+0  17684-3 0  9991\r\n2 44343  24.0003  22.5350 0000648 154.0665 205.9872 15.09969269386670\r\n",
  "FORMOSAT 7-1            \r\n1 44349U 19036L   26191.31661574  .00001612  00000+0  11214-3 0  9996\r\n2 44349  23.9968 236.4528 0001067  90.4582 269.6041 14.96601743388126\r\n",
  "FORMOSAT 7-4            \r\n1 44350U 19036M   26190.47244539  .00001888  00000+0  13579-3 0  9993\r\n2 44350  23.9992 304.2533 0001549  88.4092 271.6586 14.96597584387418\r\n",
  "FORMOSAT 7-2            \r\n1 44351U 19036N   26190.76149999  .00001891  00000+0  13614-3 0  9994\r\n2 44351  24.0002 356.6175 0000957  82.6973 277.3636 14.96596123386979\r\n",
  "FORMOSAT 7-6            \r\n1 44353U 19036Q   26191.29447951  .00001710  00000+0  12061-3 0  9999\r\n2 44353  23.9962 173.8340 0001122  25.6762 334.3795 14.96601199385288\r\n",
  "FORMOSAT 7-5            \r\n1 44358U 19036V   26191.13850963  .00001758  00000+0  12476-3 0  9990\r\n2 44358  23.9981 113.6352 0000589 104.8160 255.2407 14.96579833385793\r\n",
  "FORMOSAT-7R (TRITON)    \r\n1 58017U 23155B   26191.18875766  .00001011  00000+0  10748-3 0  9999\r\n2 58017  97.8351 272.4215 0001859  57.8491 302.2907 14.91185958149655\r\n",
  "NIGHTJAR                \r\n1 60535U 24149BV  26191.15392678  .00002325  00000+0  19595-3 0  9992\r\n2 60535  97.6828 267.5378 0002319 105.8069 254.3410 14.99146764146318\r\n",
  "IRIS-F3                 \r\n1 62619U 25009L   26191.18473928  .00006645  00000+0  25096-3 0  9996\r\n2 62619  97.4043 271.8500 0005175 230.8796 129.1983 15.27327763 82331\r\n",
  "IRIS-F2                 \r\n1 62684U 25009CD  26190.15372454  .00010062  00000+0  37910-3 0  9992\r\n2 62684  97.3883 269.7119 0004019 263.1285  96.9497 15.27273813139817\r\n",
  "FORMOSAT-8A             \r\n1 66666U 25276A   26191.14223608  .00001113  00000+0  92483-4 0  9992\r\n2 66666  97.6545 265.0400 0004889 146.6599 213.4934 15.00742096 33505\r\n",
  "LILIUM-2                \r\n1 66679U 25276P   26189.72856203  .00001444  00000+0  74138-4 0  9994\r\n2 66679  97.4144 262.3408 0004471 298.3821  61.6962 15.18076370 33665\r\n",
  "BLACK KITE-1            \r\n1 66741U 25276CD  26190.81294882  .00006034  00000+0  27576-3 0  9998\r\n2 66741  97.4238 264.2041 0004048 265.9931  94.0842 15.20927484 31169\r\n",
  "T.MICROSAT-1            \r\n1 66766U 25276DE  26190.44518082  .00003814  00000+0  17480-3 0  9991\r\n2 66766  97.4155 263.8267 0002223 105.0952 255.0530 15.21058261 33826\r\n",
  "LILIUM-3                \r\n1 66770U 25276DJ  26190.15281451  .00001624  00000+0  79417-4 0  9997\r\n2 66770  97.4236 263.5486 0002716 140.8238 219.3194 15.19622828 33767\r\n",
  "T.MICROSAT-2            \r\n1 68433U 26067T   26190.61205851  .00003481  00000+0  17640-3 0  9997\r\n2 68433  97.4574 148.6455 0005482   5.4196 354.7096 15.17615942 15336\r\n",
  "PARUS-6U1               \r\n1 68456U 26067AS  26190.80378580  .00003696  00000+0  18633-3 0  9994\r\n2 68456  97.4559 148.8240 0005382   7.6444 352.4870 15.17759378 15367\r\n",
  "BLACK KITE-2            \r\n1 68474U 26067BL  26189.86760256  .00001061  00000+0  10830-3 0  9998\r\n2 68474  97.7552 147.8370 0002840 135.4476 224.6972 14.92681159 14968\r\n",
  "PEARL-1B                \r\n1 68980U 26100A   26189.99473726  .00001646  00000+0  17350-3 0  9998\r\n2 68980  97.7340  86.9208 0008927  77.9778 282.2440 14.90651903  9938\r\n",
  "PEARL-1A                \r\n1 68990U 26100L   26191.18402315  .00001133  00000+0  11995-3 0  9999\r\n2 68990  97.7287  88.0906 0006976  87.7846 272.4172 14.91049359 10127\r\n"
]